{
  "variableForMetar": "METAR",
  "targets": [
    {
      "version": "0200-real",
      "realweather": true,
      "time": 7200
    },
    {
      "version": "0500-real",
      "realweather": true,
      "time": 18000
    },
    {
      "version": "0500-broken",
      "weather": "KQND 150856Z AUTO VRB04G11KT 9999 SCT050 BKN100 39/05 A2989 RMK AO2 SLP103 WND DATA ESTMD T03900045 50007",
      "time": 18000
    },
    {
      "version": "0500-scattered",
      "weatherfile": "scattered.lua",
      "time": 18000
    },
    {
      "version": "0530-scattered",
      "weather": "UGKO 180600Z 09009KTG16KT 060V130 SCT040 29/17 Q1004 NOSIG",
      "time": 19800
    },
    {
      "version": "0600-overcast-low",
      "weatherfile": "overcast-low.lua",
      "time": 21600
    },
    {
      "version": "0700-real",
      "realweather": true,
      "time": 25200
    },
    {
      "version": "0730-real",
      "realweather": true,
      "time": 27000
    },
    {
      "version": "0830-real",
      "realweather": true,
      "time": 30600
    },
    {
      "version": "0930-real",
      "realweather": true,
      "time": 34200
    },
    {
      "version": "1030-real",
      "realweather": true,
      "time": 37800
    },
    {
      "version": "0700-scattered",
      "weather": "KQND 150856Z AUTO VRB04G11KT 9999 SCT050 SCT100 39/05 A2989 RMK AO2 SLP103 WND DATA ESTMD T03900045 50007",
      "time": 25200
    },
    {
      "version": "0700-broken",
      "weather": "KQND 150856Z AUTO VRB04G11KT 9999 SCT050 BKN100 39/05 A2989 RMK AO2 SLP103 WND DATA ESTMD T03900045 50007",
      "time": 25200
    },
    {
      "version": "0800-overcast-high",
      "weatherfile": "overcast-high.lua",
      "time": 28800
    },
    {
      "version": "1600-real",
      "realweather": true,
      "time": 57600
    },
    {
      "version": "1700-real",
      "realweather": true,
      "time": 61200
    },
    {
      "version": "2230-clear",
      "weather": "KQND 150856Z AUTO VRB04G11KT 9999 SCT100 SCT150 39/05 A2989 RMK AO2 SLP103 WND DATA ESTMD T03900045 50007",
      "time": 81000
    }
  ]
}