{
    // Use IntelliSense to learn about possible attributes.
    // Hover to view descriptions of existing attributes.
    // For more information, visit: https://go.microsoft.com/fwlink/?linkid=830387
    "version": "0.2.0",
    "configurations": [
        {
            "name": "veafSpawnableAircraftsEditor",
            "program": "${workspaceFolder}/src/scripts/veaf/veafSpawnableAircraftsEditor.lua",
            "arg": ["${workspaceFolder}/test", "${workspaceFolder}/test/veafSpawnableAircraftsEditorSettings.lua", "-trace"],
            //"arg": ["${workspaceFolder}/test", "${workspaceFolder}/test/veafSpawnableAircraftsEditorSettings.lua", "-trace", "-namefilter", "\".* EASY .*\""],
            //"arg": ["${workspaceFolder}/test", "${workspaceFolder}/test/veafSpawnableAircraftsEditorSettings.lua", "-trace", "-import"],
            //"arg": ["${workspaceFolder}/test", "${workspaceFolder}/test/veafSpawnableAircraftsEditorSettings.lua", "-trace", "-import", "-namefilter", "\".* EASY .*\""],
            "request": "launch",
            "stopOnEntry": true,
            "type": "lua"
        },
        {
            "name": "compile.ps1",
            "type": "PowerShell",
            "request": "launch",
            "script": "${workspaceFolder}/compile.ps1",
            "cwd": "${cwd}",
            //"args": ["-ArtefactName veaf-scripts", "-VersionTag '-PROD'" ],
            "args": [
                "-ArtefactName veaf-scripts",
                "-DevelopmentVersion"
            ],
        },
        {
            "type": "node",
            "request": "launch",
            "name": "app",
            "program": "${workspaceFolder}/src/nodejs/app.js",
            "cwd": "${workspaceFolder}",
            // "args": ["inject", "test.miz", "test-target.miz", "--verbose", "--variable=METAR",  "-s 19800", "-r"],
            //"args": ["inject", "test/test.miz", "test/test-target.miz", "--verbose", "--variable=METAR",  "-s 19800", "-r", "--clearsky", "--nocachef"],
            //"args": ["inject", "test.miz", "test-target.miz", "--verbose", "--variable=METAR",  "-s 19800", "-m UGAM 261400Z AUTO VRB02KT //// ////// 18/12 Q1018"],
            //"args": ["inject", "test.miz", "test-target.miz", "--verbose", "--variable=METAR",  "-s 19800", "-m UG27 221130Z 04515KT +SHRA BKN008 OVC024 Q1006 NOSIG"],
            // "args": ["inject", "test.miz", "test-target.miz", "--verbose", "--variable=METAR",  "-s 19800", "-m URMN 151400Z 09002MPS 9999 FEW/// BKN/// 18/02 Q1015 R24/010070 NOSIG RMK QFE725"],
            // "args": ["inject", "test.miz", "test-target.miz", "--verbose", "--variable=METAR",  "-s 19800", "-m KIKK 151355Z AUTO 34010KT 10SM -SHRA BKN008 OVC024 06/00 A3007 RMK AO2 T00550004 TSNO"],
            // "args": ["inject", "test.miz", "test-target.miz", "--verbose", "--variable=METAR",  "-s 19800", "-m URMN 130900Z 09002MPS 9999 -SHRA BKN008 BKN017CB 09/07 Q1021 R24/210155 NOSIG RMK MT OBSC QFE729"],
            // "args": ["inject", "test.miz", "test-target.miz", "--verbose", "--variable=METAR",  "-s 19800", "-m UGKO 180600Z 09009KTG16KT 060V130 SCT040 29/17 Q1004 NOSIG"],
            // "args": ["inject", "test.miz", "test-target.miz","--variable=METAR",  "-s 19800", "-m KQND 150856Z AUTO VRB04G11KT 9999 CLR 39/05 A2989 RMK AO2 SLP103 WND DATA ESTMD T03900045 50007"],
            //"args": ["injectall", "test/ofs-a10c-all-in-one-v001a.miz", "test/ofs-a10c-all-in-one-v001a-${version}.miz", "test/weatherAndTime/versions.json","--nocache"],
            //"args": ["injectall", "--verbose", "test/test.miz", "test/test-${version}.miz", "test/weatherAndTime/versions.json"],
            //"args": ["inject", "-v", "test/test.miz", "-s", "34000", "-m" ,"KLSV 150856Z AUTO VRB04G11KT FG SCT010 SCT050  OVC 100  39/05 A2979 RMK AO2 SLP103 WND DATA ESTMD T03900045 50007", "test\test-out.miz"],
            "args": [
                "inject",
                "-v",
                "test/test.miz",
                "--date",
                "202301260635",
                "-m",
                "KLSV 150856Z AUTO VRB04G11KT FG SCT010 SCT050  OVC 100  39/05 A2979 RMK AO2 SLP103 WND DATA ESTMD T03900045 50007",
                "test/test-out.miz"
            ],
            //"args": ["select-mission", "test/missionSelector/serverSettings-default.lua", "test/missionSelector/serverSettings.lua", "test/missionSelector/serverCron-example_generated.json"],
            //"args": ["select-mission", "test/missionSelector/serverSettings-default.lua", "test/missionSelector/serverSettings.lua", "test/missionSelector/serverCron-example.json"],
            "skipFiles": [
                "<node_internals>/**"
            ]
        },
        {
            "name": "PowerShell: Launch Script",
            "type": "PowerShell",
            "request": "launch",
            "script": "./buildMission.cmd",
            "cwd": "${workspaceFolder}"
        }
    ]
}